45434,ONEWEB-0018,2020,109.8,148.0,+,87.89,Active,1,LEO,Kazakhstan,UK,Commercial,Communications,Soyuz,1 45434U 20020L   24279.15405315  .00000518  00000+0  14263-2 0  9993,2 45434  87.8938 144.5697 0001676  79.9099 280.2218 13.11418914221375,13.11418914,0.0001676,LEO
45435,ONEWEB-0083,2020,109.8,148.0,+,87.89,Active,1,LEO,Kazakhstan,UK,Commercial,Communications,Soyuz,1 45435U 20020M   24279.52536216  .00000200  00000+0  52821-3 0  9991,2 45435  87.8941 144.4782 0001610  75.3704 284.7603 13.11420719221468,13.11420719,0.000161,LEO
45436,ONEWEB-0095,2020,109.8,148.0,+,87.89,Active,1,LEO,Kazakhstan,UK,Commercial,Communications,Soyuz,1 45436U 20020N   24279.13553662 -.00000096  00000+0 -30674-3 0  9990,2 45436  87.8941 144.5876 0001534  45.7403 314.3850 13.11419145221416,13.11419145,0.0001534,LEO
45437,ONEWEB-0092,2020,109.8,148.0,+,87.89,Active,1,LEO,Kazakhstan,UK,Commercial,Communications,Soyuz,1 45437U 20020P   24278.72084511 -.00000045  00000+0 -16398-3 0  9998,2 45437  87.8938 144.6530 0001388  68.0271 292.1004 13.11417779221469,13.11417779,0.0001388,LEO
45438,ONEWEB-0085,2020,109.8,148.0,+,87.89,Active,1,LEO,Kazakhstan,UK,Commercial,Communications,Soyuz,1 45438U 20020Q   24279.13708111 -.00000019  00000+0 -88891-4 0  9993,2 45438  87.8940 144.5794 0001622  80.4394 279.6918 13.11421438221415,13.11421438,0.0001622,LEO
45439,ONEWEB-0096,2020,109.8,148.0,+,87.89,Active,1,LEO,Kazakhstan,UK,Commercial,Communications,Soyuz,1 45439U 20020R   24279.14557611  .00000257  00000+0  68964-3 0  9992,2 45439  87.8940 144.5471 0001629  86.6860 273.4454 13.11419883221408,13.11419883,0.0001629,LEO
45440,ONEWEB-0037,2020,109.8,148.0,+,87.89,Active,1,LEO,Kazakhstan,UK,Commercial,Communications,Soyuz,1 45440U 20020S   24279.12691275 -.00000736  00000+0 -21117-2 0  9999,2 45440  87.8933 144.5278 0001540  76.4881 283.6418 13.11418174221437,13.11418174,0.000154,LEO
45441,ONEWEB-0042,2020,109.8,148.0,+,87.89,Active,1,LEO,Kazakhstan,UK,Commercial,Communications,Soyuz,1 45441U 20020T   24279.13524753 -.00000293  00000+0 -86186-3 0  9993,2 45441  87.8938 144.5621 0001574  79.8410 280.2895 13.11420049221400,13.11420049,0.0001574,LEO
